{"type": "FeatureCollection", "features": [ {"type": "Feature", "properties": {"norad_id": 31185, "name": "FENGYUN 1C DEB", "group": "fengyun-1c-debris", "lat": 31.20037102385933, "lon": 164.17195967665756, "alt_km": 855.3198658062274, "timestamp": "2025-12-08T03:50:07.277878+00:00", "meta": {"OBJECT_NAME": "FENGYUN 1C DEB", "OBJECT_ID": "1999-025BJP", "EPOCH": "2025-12-03T06:44:56.905152", "MEAN_MOTION": 14.03019915, "ECCENTRICITY": 0.0041359, "INCLINATION": 98.8321, "RA_OF_ASC_NODE": 334.0356, "ARG_OF_PERICENTER": 132.5488, "MEAN_ANOMALY": 227.9182, "EPHEMERIS_TYPE": 0, "CLASSIFICATION_TYPE": "U", "NORAD_CAT_ID": 31185, "ELEMENT_SET_NO": 999, "REV_AT_EPOCH": 62204, "BSTAR": 0.0004459, "MEAN_MOTION_DOT": 6.55e-06, "MEAN_MOTION_DDOT": 0}, "tle": {"line1": "1 31185U 99025BJP 25337.28121418  .00000655  00000+0  44590-3 0  9990", "line2": "2 31185  98.8321 334.0356 0041359 132.5488 227.9182 14.03019915622046"}}, "geometry": {"type": "Point", "coordinates": [164.17195967665756, 31.20037102385933]}}, {"type": "Feature", "properties": {"norad_id": 31186, "name": "FENGYUN 1C DEB", "group": "fengyun-1c-debris", "lat": 10.740394758337558, "lon": 79.16341101852055, "alt_km": 852.0901007259081, "timestamp": "2025-12-08T03:50:07.277888+00:00", "meta": {"OBJECT_NAME": "FENGYUN 1C DEB", "OBJECT_ID": "1999-025BJQ", "EPOCH": "2025-12-07T00:08:36.055104", "MEAN_MOTION": 14.12891869, "ECCENTRICITY": 0.00265947, "INCLINATION": 99.1777, "RA_OF_ASC_NODE": 256.2241, "ARG_OF_PERICENTER": 78.4554, "MEAN_ANOMALY": 344.6063, "EPHEMERIS_TYPE": 0, "CLASSIFICATION_TYPE": "U", "NORAD_CAT_ID": 31186, "ELEMENT_SET_NO": 999, "REV_AT_EPOCH": 96024, "BSTAR": 0.00076036897, "MEAN_MOTION_DOT": 1.373e-05, "MEAN_MOTION_DDOT": 0}, "tle": {"line1": "1 31186U 99025BJQ 25341.00597286  .00001373  00000+0  76037-3 0  9995", "line2": "2 31186  99.1777 256.2241 0026594  78.4554 344.6063 14.12891869960248"}}, "geometry": {"type": "Point", "coordinates": [79.16341101852055, 10.740394758337558]}}, {"type": "Feature", "properties": {"norad_id": 31187, "name": "FENGYUN 1C DEB", "group": "fengyun-1c-debris", "lat": 19.03795040049175, "lon": -158.13745382968497, "alt_km": 817.7604761852845, "timestamp": "2025-12-08T03:50:07.277897+00:00", "meta": {"OBJECT_NAME": "FENGYUN 1C DEB", "OBJECT_ID": "1999-025BJR", "EPOCH": "2025-12-06T13:53:20.139648", "MEAN_MOTION": 14.58970645, "ECCENTRICITY": 0.02213643, "INCLINATION": 99.2409, "RA_OF_ASC_NODE": 203.3237, "ARG_OF_PERICENTER": 242.4666, "MEAN_ANOMALY": 115.3882, "EPHEMERIS_TYPE": 0, "CLASSIFICATION_TYPE": "U", "NORAD_CAT_ID": 31187, "ELEMENT_SET_NO": 999, "REV_AT_EPOCH": 69010, "BSTAR": 0.005551344, "MEAN_MOTION_DOT": 0.00036781, "MEAN_MOTION_DDOT": 0}, "tle": {"line1": "1 31187U 99025BJR 25340.57870532  .00036781  00000+0  55513-2 0  9991", "line2": "2 31187  99.2409 203.3237 0221364 242.4666 115.3882 14.58970645690106"}}, "geometry": {"type": "Point", "coordinates": [-158.13745382968497, 19.03795040049175]}}, {"type": "Feature", "properties": {"norad_id": 31188, "name": "FENGYUN 1C DEB", "group": "fengyun-1c-debris", "lat": 35.0340993847806, "lon": 43.772063175904805, "alt_km": 839.1184152024889, "timestamp": "2025-12-08T03:50:07.277907+00:00", "meta": {"OBJECT_NAME": "FENGYUN 1C DEB", "OBJECT_ID": "1999-025BJS", "EPOCH": "2025-12-05T03:26:03.547104", "MEAN_MOTION": 14.23746039, "ECCENTRICITY": 0.00594994, "INCLINATION": 98.7496, "RA_OF_ASC_NODE": 46.9698, "ARG_OF_PERICENTER": 271.5057, "MEAN_ANOMALY": 149.9815, "EPHEMERIS_TYPE": 0, "CLASSIFICATION_TYPE": "U", "NORAD_CAT_ID": 31188, "ELEMENT_SET_NO": 999, "REV_AT_EPOCH": 96228, "BSTAR": 0.0031565228, "MEAN_MOTION_DOT": 7.306e-05, "MEAN_MOTION_DDOT": 0}, "tle": {"line1": "1 31188U 99025BJS 25339.14309661  .00007306  00000+0  31565-2 0  9995", "line2": "2 31188  98.7496  46.9698 0059499 271.5057 149.9815 14.23746039962284"}}, "geometry": {"type": "Point", "coordinates": [43.772063175904805, 35.0340993847806]}}, {"type": "Feature", "properties": {"norad_id": 31190, "name": "FENGYUN 1C DEB", "group": "fengyun-1c-debris", "lat": 14.216372777594607, "lon": 177.27814850416263, "alt_km": 896.236286923825, "timestamp": "2025-12-08T03:50:07.277917+00:00", "meta": {"OBJECT_NAME": "FENGYUN 1C DEB", "OBJECT_ID": "1999-025BJU", "EPOCH": "2025-12-06T23:40:06.486816", "MEAN_MOTION": 14.03577844, "ECCENTRICITY": 0.00674538, "INCLINATION": 98.8188, "RA_OF_ASC_NODE": 353.8861, "ARG_OF_PERICENTER": 275.6976, "MEAN_ANOMALY": 83.6503, "EPHEMERIS_TYPE": 0, "CLASSIFICATION_TYPE": "U", "NORAD_CAT_ID": 31190, "ELEMENT_SET_NO": 999, "REV_AT_EPOCH": 95466, "BSTAR": 0.0011732849, "MEAN_MOTION_DOT": 1.835e-05, "MEAN_MOTION_DDOT": 0}, "tle": {"line1": "1 31190U 99025BJU 25340.98618619  .00001835  00000+0  11733-2 0  9994", "line2": "2 31190  98.8188 353.8861 0067453 275.6976  83.6503 14.03577844954667"}}, "geometry": {"type": "Point", "coordinates": [177.27814850416263, 14.216372777594607]}}, {"type": "Feature", "properties": {"norad_id": 31191, "name": "FENGYUN 1C DEB", "group": "fengyun-1c-debris", "lat": 34.603061057876495, "lon": 69.04943519275196, "alt_km": 723.804864775545, "timestamp": "2025-12-08T03:50:07.277927+00:00", "meta": {"OBJECT_NAME": "FENGYUN 1C DEB", "OBJECT_ID": "1999-025BJV", "EPOCH": "2025-12-06T04:29:23.330112", "MEAN_MOTION": 14.40767055, "ECCENTRICITY": 0.00919559, "INCLINATION": 98.7824, "RA_OF_ASC_NODE": 240.9016, "ARG_OF_PERICENTER": 214.1234, "MEAN_ANOMALY": 145.4021, "EPHEMERIS_TYPE": 0, "CLASSIFICATION_TYPE": "U", "NORAD_CAT_ID": 31191, "ELEMENT_SET_NO": 999, "REV_AT_EPOCH": 97918, "BSTAR": 0.00064358573, "MEAN_MOTION_DOT": 2.116e-05, "MEAN_MOTION_DDOT": 0}, "tle": {"line1": "1 31191U 99025BJV 25340.18707558  .00002116  00000+0  64359-3 0  9994", "line2": "2 31191  98.7824 240.9016 0091955 214.1234 145.4021 14.40767055979183"}}, "geometry": {"type": "Point", "coordinates": [69.04943519275196, 34.603061057876495]}}, {"type": "Feature", "properties": {"norad_id": 31192, "name": "FENGYUN 1C DEB", "group": "fengyun-1c-debris", "lat": 11.224309322345286, "lon": -35.72208137401085, "alt_km": 868.8949509050681, "timestamp": "2025-12-08T03:50:07.277936+00:00", "meta": {"OBJECT_NAME": "FENGYUN 1C DEB", "OBJECT_ID": "1999-025BJW", "EPOCH": "2025-12-06T09:31:52.381920", "MEAN_MOTION": 14.20945151, "ECCENTRICITY": 0.02595651, "INCLINATION": 98.5531, "RA_OF_ASC_NODE": 324.2808, "ARG_OF_PERICENTER": 122.0726, "MEAN_ANOMALY": 240.594, "EPHEMERIS_TYPE": 0, "CLASSIFICATION_TYPE": "U", "NORAD_CAT_ID": 31192, "ELEMENT_SET_NO": 999, "REV_AT_EPOCH": 96653, "BSTAR": 0.00046164619, "MEAN_MOTION_DOT": 1.361e-05, "MEAN_MOTION_DDOT": 0}, "tle": {"line1": "1 31192U 99025BJW 25340.39713405  .00001361  00000+0  46165-3 0  9992", "line2": "2 31192  98.5531 324.2808 0259565 122.0726 240.5940 14.20945151966533"}}, "geometry": {"type": "Point", "coordinates": [-35.72208137401085, 11.224309322345286]}}, {"type": "Feature", "properties": {"norad_id": 31194, "name": "FENGYUN 1C DEB", "group": "fengyun-1c-debris", "lat": 40.26186750411231, "lon": -136.6419731041985, "alt_km": 779.1981658307286, "timestamp": "2025-12-08T03:50:07.277946+00:00", "meta": {"OBJECT_NAME": "FENGYUN 1C DEB", "OBJECT_ID": "1999-025BJY", "EPOCH": "2025-12-06T11:31:42.879360", "MEAN_MOTION": 14.36591878, "ECCENTRICITY": 0.00578474, "INCLINATION": 98.9639, "RA_OF_ASC_NODE": 229.2929, "ARG_OF_PERICENTER": 297.7162, "MEAN_ANOMALY": 61.8162, "EPHEMERIS_TYPE": 0, "CLASSIFICATION_TYPE": "U", "NORAD_CAT_ID": 31194, "ELEMENT_SET_NO": 999, "REV_AT_EPOCH": 97037, "BSTAR": 0.0019926798, "MEAN_MOTION_DOT": 5.929e-05, "MEAN_MOTION_DDOT": 0}, "tle": {"line1": "1 31194U 99025BJY 25340.48035740  .00005929  00000+0  19927-2 0  9992", "line2": "2 31194  98.9639 229.2929 0057847 297.7162  61.8162 14.36591878970376"}}, "geometry": {"type": "Point", "coordinates": [-136.6419731041985, 40.26186750411231]}}, {"type": "Feature", "properties": {"norad_id": 31195, "name": "FENGYUN 1C DEB", "group": "fengyun-1c-debris", "lat": -55.93824345300545, "lon": 28.815877004997976, "alt_km": 911.9275704942938, "timestamp": "2025-12-08T03:50:07.277956+00:00", "meta": {"OBJECT_NAME": "FENGYUN 1C DEB", "OBJECT_ID": "1999-025BJZ", "EPOCH": "2025-12-07T00:49:23.168352", "MEAN_MOTION": 14.07974904, "ECCENTRICITY": 0.01716097, "INCLINATION": 98.7798, "RA_OF_ASC_NODE": 14.5067, "ARG_OF_PERICENTER": 197.2613, "MEAN_ANOMALY": 162.2676, "EPHEMERIS_TYPE": 0, "CLASSIFICATION_TYPE": "U", "NORAD_CAT_ID": 31195, "ELEMENT_SET_NO": 999, "REV_AT_EPOCH": 96018, "BSTAR": 0.0003181991, "MEAN_MOTION_DOT": 5.76e-06, "MEAN_MOTION_DDOT": 0}, "tle": {"line1": "1 31195U 99025BJZ 25341.03429593  .00000576  00000+0  31820-3 0  9998", "line2": "2 31195  98.7798  14.5067 0171609 197.2613 162.2676 14.07974904960184"}}, "geometry": {"type": "Point", "coordinates": [28.815877004997976, -55.93824345300545]}}, {"type": "Feature", "properties": {"norad_id": 31196, "name": "FENGYUN 1C DEB", "group": "fengyun-1c-debris", "lat": -39.817997226078475, "lon": 2.695485936938005, "alt_km": 816.1780577965519, "timestamp": "2025-12-08T03:50:07.277966+00:00", "meta": {"OBJECT_NAME": "FENGYUN 1C DEB", "OBJECT_ID": "1999-025BKA", "EPOCH": "2025-12-07T07:48:33.463584", "MEAN_MOTION": 14.25439022, "ECCENTRICITY": 0.00576742, "INCLINATION": 98.5268, "RA_OF_ASC_NODE": 354.6991, "ARG_OF_PERICENTER": 228.1014, "MEAN_ANOMALY": 131.5239, "EPHEMERIS_TYPE": 0, "CLASSIFICATION_TYPE": "U", "NORAD_CAT_ID": 31196, "ELEMENT_SET_NO": 999, "REV_AT_EPOCH": 63418, "BSTAR": 0.00092095833, "MEAN_MOTION_DOT": 2.169e-05, "MEAN_MOTION_DDOT": 0}, "tle": {"line1": "1 31196U 99025BKA 25341.32538731  .00002169  00000+0  92096-3 0  9998", "line2": "2 31196  98.5268 354.6991 0057674 228.1014 131.5239 14.25439022634182"}}, "geometry": {"type": "Point", "coordinates": [2.695485936938005, -39.817997226078475]}}]}